{"features":[{"geometry":{"coordinates":[-121.542683,40.08531],"type":"Point"},"properties":{"asset_id":"census-place-0609318","asset_kind":"community","capacity":null,"name":"Butte Meadows CDP","population":74,"raw_metadata":{"demand":{"required_capability":"evacuation","required_capacity":2},"geoid":"0609318","housing_units":213,"population_measure":"2020 Census","source_url":"https://tigerweb.geo.census.gov/tigerwebmain/Files/bas25/tigerweb_bas25_cdp_2020_tab20_ca.html"},"source_name":"census_tab20","source_version":"2020-census-tab20"},"type":"Feature"},{"geometry":{"coordinates":[-121.81772,39.758951],"type":"Point"},"properties":{"asset_id":"census-place-0613014","asset_kind":"community","capacity":null,"name":"Chico city","population":101475,"raw_metadata":{"demand":{"required_capability":"evacuation","required_capacity":4},"gazetteer_url":"https://www2.census.gov/geo/docs/maps-data/data/gazetteer/2024_Gazetteer/2024_gaz_place_06.txt","geoid":"0613014","population_measure":"2020 Census"},"source_name":"census","source_version":"2020-decennial-pl"},"type":"Feature"},{"geometry":{"coordinates":[-121.6064,39.754192],"type":"Point"},"properties":{"asset_id":"census-place-0655520","asset_kind":"community","capacity":null,"name":"Paradise town","population":4764,"raw_metadata":{"demand":{"required_capability":"evacuation","required_capacity":2},"gazetteer_url":"https://www2.census.gov/geo/docs/maps-data/data/gazetteer/2024_Gazetteer/2024_gaz_place_06.txt","geoid":"0655520","population_measure":"2020 Census"},"source_name":"census","source_version":"2020-decennial-pl"},"type":"Feature"}],"type":"FeatureCollection"}
